{
    "type": "FeatureCollection",
    "features": [
        {
            "type": "Feature",
            "properties": {
                "name": "Adamaoua",
                "code": "AD"
            },
            "geometry": {
                "type": "Polygon",
                "coordinates": [
                    [
                        [
                            11.0,
                            6.0
                        ],
                        [
                            11.5,
                            6.0
                        ],
                        [
                            12.0,
                            6.2
                        ],
                        [
                            12.5,
                            6.5
                        ],
                        [
                            13.0,
                            6.8
                        ],
                        [
                            13.5,
                            7.0
                        ],
                        [
                            14.0,
                            7.2
                        ],
                        [
                            14.5,
                            7.4
                        ],
                        [
                            15.0,
                            7.5
                        ],
                        [
                            15.2,
                            7.3
                        ],
                        [
                            15.5,
                            7.0
                        ],
                        [
                            15.2,
                            6.8
                        ],
                        [
                            14.8,
                            6.5
                        ],
                        [
                            14.5,
                            6.2
                        ],
                        [
                            14.0,
                            6.0
                        ],
                        [
                            13.5,
                            5.9
                        ],
                        [
                            13.0,
                            5.8
                        ],
                        [
                            12.5,
                            5.8
                        ],
                        [
                            12.0,
                            5.9
                        ],
                        [
                            11.5,
                            5.9
                        ],
                        [
                            11.0,
                            6.0
                        ]
                    ]
                ]
            }
        },
        {
            "type": "Feature",
            "properties": {
                "name": "Centre",
                "code": "CE"
            },
            "geometry": {
                "type": "Polygon",
                "coordinates": [
                    [
                        [
                            10.0,
                            3.4
                        ],
                        [
                            10.5,
                            3.5
                        ],
                        [
                            11.0,
                            3.7
                        ],
                        [
                            11.5,
                            3.8
                        ],
                        [
                            12.0,
                            4.0
                        ],
                        [
                            12.5,
                            4.2
                        ],
                        [
                            13.0,
                            4.5
                        ],
                        [
                            13.0,
                            4.8
                        ],
                        [
                            12.8,
                            5.0
                        ],
                        [
                            12.5,
                            5.2
                        ],
                        [
                            12.5,
                            5.5
                        ],
                        [
                            12.5,
                            5.8
                        ],
                        [
                            12.0,
                            5.9
                        ],
                        [
                            11.5,
                            5.9
                        ],
                        [
                            11.0,
                            6.0
                        ],
                        [
                            10.5,
                            5.8
                        ],
                        [
                            10.2,
                            5.5
                        ],
                        [
                            10.0,
                            5.2
                        ],
                        [
                            9.8,
                            4.8
                        ],
                        [
                            9.8,
                            4.5
                        ],
                        [
                            9.9,
                            4.2
                        ],
                        [
                            10.0,
                            3.8
                        ],
                        [
                            10.0,
                            3.4
                        ]
                    ]
                ]
            }
        },
        {
            "type": "Feature",
            "properties": {
                "name": "Est",
                "code": "ES"
            },
            "geometry": {
                "type": "Polygon",
                "coordinates": [
                    [
                        [
                            13.0,
                            4.5
                        ],
                        [
                            13.5,
                            4.3
                        ],
                        [
                            14.0,
                            4.0
                        ],
                        [
                            14.5,
                            3.8
                        ],
                        [
                            15.0,
                            3.5
                        ],
                        [
                            15.5,
                            3.2
                        ],
                        [
                            16.0,
                            2.8
                        ],
                        [
                            16.2,
                            2.5
                        ],
                        [
                            16.2,
                            2.2
                        ],
                        [
                            16.0,
                            2.0
                        ],
                        [
                            15.8,
                            2.2
                        ],
                        [
                            15.5,
                            2.5
                        ],
                        [
                            15.0,
                            2.8
                        ],
                        [
                            14.5,
                            2.8
                        ],
                        [
                            14.0,
                            2.5
                        ],
                        [
                            13.5,
                            2.5
                        ],
                        [
                            13.2,
                            2.8
                        ],
                        [
                            13.0,
                            3.0
                        ],
                        [
                            12.8,
                            3.2
                        ],
                        [
                            12.5,
                            3.5
                        ],
                        [
                            12.5,
                            3.8
                        ],
                        [
                            12.5,
                            4.2
                        ],
                        [
                            13.0,
                            4.5
                        ]
                    ]
                ]
            }
        },
        {
            "type": "Feature",
            "properties": {
                "name": "Extrême-Nord",
                "code": "EN"
            },
            "geometry": {
                "type": "Polygon",
                "coordinates": [
                    [
                        [
                            13.5,
                            10.0
                        ],
                        [
                            13.8,
                            10.5
                        ],
                        [
                            14.0,
                            10.8
                        ],
                        [
                            14.2,
                            11.0
                        ],
                        [
                            14.5,
                            11.5
                        ],
                        [
                            14.8,
                            11.8
                        ],
                        [
                            15.0,
                            12.0
                        ],
                        [
                            15.2,
                            12.5
                        ],
                        [
                            15.0,
                            12.8
                        ],
                        [
                            14.7,
                            13.0
                        ],
                        [
                            14.5,
                            13.2
                        ],
                        [
                            14.2,
                            12.8
                        ],
                        [
                            14.0,
                            12.5
                        ],
                        [
                            13.8,
                            12.0
                        ],
                        [
                            13.5,
                            11.5
                        ],
                        [
                            13.2,
                            11.0
                        ],
                        [
                            13.0,
                            10.5
                        ],
                        [
                            13.2,
                            10.2
                        ],
                        [
                            13.5,
                            10.0
                        ]
                    ]
                ]
            }
        },
        {
            "type": "Feature",
            "properties": {
                "name": "Littoral",
                "code": "LT"
            },
            "geometry": {
                "type": "Polygon",
                "coordinates": [
                    [
                        [
                            9.2,
                            3.8
                        ],
                        [
                            9.5,
                            3.9
                        ],
                        [
                            9.8,
                            4.0
                        ],
                        [
                            9.9,
                            4.2
                        ],
                        [
                            10.0,
                            4.5
                        ],
                        [
                            10.0,
                            4.8
                        ],
                        [
                            10.2,
                            5.0
                        ],
                        [
                            10.0,
                            5.2
                        ],
                        [
                            9.8,
                            5.2
                        ],
                        [
                            9.5,
                            5.0
                        ],
                        [
                            9.3,
                            4.8
                        ],
                        [
                            9.2,
                            4.5
                        ],
                        [
                            9.0,
                            4.2
                        ],
                        [
                            9.0,
                            4.0
                        ],
                        [
                            9.2,
                            3.8
                        ]
                    ]
                ]
            }
        },
        {
            "type": "Feature",
            "properties": {
                "name": "Nord",
                "code": "NO"
            },
            "geometry": {
                "type": "Polygon",
                "coordinates": [
                    [
                        [
                            12.5,
                            7.5
                        ],
                        [
                            13.0,
                            7.8
                        ],
                        [
                            13.5,
                            8.0
                        ],
                        [
                            14.0,
                            8.5
                        ],
                        [
                            14.2,
                            9.0
                        ],
                        [
                            14.5,
                            9.5
                        ],
                        [
                            14.0,
                            10.0
                        ],
                        [
                            13.5,
                            10.0
                        ],
                        [
                            13.2,
                            10.2
                        ],
                        [
                            13.0,
                            10.5
                        ],
                        [
                            12.8,
                            10.2
                        ],
                        [
                            12.5,
                            9.8
                        ],
                        [
                            12.2,
                            9.5
                        ],
                        [
                            12.0,
                            9.0
                        ],
                        [
                            12.0,
                            8.5
                        ],
                        [
                            12.2,
                            8.0
                        ],
                        [
                            12.5,
                            7.5
                        ]
                    ]
                ]
            }
        },
        {
            "type": "Feature",
            "properties": {
                "name": "Nord-Ouest",
                "code": "NW"
            },
            "geometry": {
                "type": "Polygon",
                "coordinates": [
                    [
                        [
                            9.8,
                            5.7
                        ],
                        [
                            10.0,
                            5.8
                        ],
                        [
                            10.2,
                            6.0
                        ],
                        [
                            10.5,
                            6.2
                        ],
                        [
                            10.8,
                            6.5
                        ],
                        [
                            11.0,
                            6.8
                        ],
                        [
                            10.8,
                            7.0
                        ],
                        [
                            10.5,
                            7.0
                        ],
                        [
                            10.2,
                            6.8
                        ],
                        [
                            10.0,
                            6.5
                        ],
                        [
                            9.8,
                            6.2
                        ],
                        [
                            9.6,
                            6.0
                        ],
                        [
                            9.5,
                            5.8
                        ],
                        [
                            9.8,
                            5.7
                        ]
                    ]
                ]
            }
        },
        {
            "type": "Feature",
            "properties": {
                "name": "Ouest",
                "code": "OU"
            },
            "geometry": {
                "type": "Polygon",
                "coordinates": [
                    [
                        [
                            9.8,
                            5.0
                        ],
                        [
                            10.0,
                            5.2
                        ],
                        [
                            10.2,
                            5.5
                        ],
                        [
                            10.5,
                            5.8
                        ],
                        [
                            10.8,
                            5.8
                        ],
                        [
                            11.0,
                            6.0
                        ],
                        [
                            10.8,
                            6.2
                        ],
                        [
                            10.5,
                            6.2
                        ],
                        [
                            10.2,
                            6.0
                        ],
                        [
                            10.0,
                            5.8
                        ],
                        [
                            9.8,
                            5.7
                        ],
                        [
                            9.5,
                            5.5
                        ],
                        [
                            9.5,
                            5.2
                        ],
                        [
                            9.8,
                            5.0
                        ]
                    ]
                ]
            }
        },
        {
            "type": "Feature",
            "properties": {
                "name": "Sud",
                "code": "SU"
            },
            "geometry": {
                "type": "Polygon",
                "coordinates": [
                    [
                        [
                            9.8,
                            2.0
                        ],
                        [
                            10.0,
                            2.2
                        ],
                        [
                            10.5,
                            2.5
                        ],
                        [
                            11.0,
                            2.8
                        ],
                        [
                            11.5,
                            2.8
                        ],
                        [
                            12.0,
                            2.8
                        ],
                        [
                            12.5,
                            2.8
                        ],
                        [
                            12.8,
                            2.5
                        ],
                        [
                            13.0,
                            2.2
                        ],
                        [
                            12.8,
                            2.0
                        ],
                        [
                            12.5,
                            1.8
                        ],
                        [
                            12.0,
                            1.7
                        ],
                        [
                            11.5,
                            1.6
                        ],
                        [
                            11.0,
                            1.6
                        ],
                        [
                            10.5,
                            1.7
                        ],
                        [
                            10.0,
                            1.8
                        ],
                        [
                            9.8,
                            2.0
                        ]
                    ]
                ]
            }
        },
        {
            "type": "Feature",
            "properties": {
                "name": "Sud-Ouest",
                "code": "SW"
            },
            "geometry": {
                "type": "Polygon",
                "coordinates": [
                    [
                        [
                            8.5,
                            4.2
                        ],
                        [
                            8.8,
                            4.5
                        ],
                        [
                            9.0,
                            4.8
                        ],
                        [
                            9.2,
                            5.0
                        ],
                        [
                            9.5,
                            5.2
                        ],
                        [
                            9.8,
                            5.5
                        ],
                        [
                            9.8,
                            5.7
                        ],
                        [
                            9.5,
                            5.8
                        ],
                        [
                            9.2,
                            5.8
                        ],
                        [
                            9.0,
                            5.5
                        ],
                        [
                            8.8,
                            5.2
                        ],
                        [
                            8.5,
                            5.0
                        ],
                        [
                            8.3,
                            4.8
                        ],
                        [
                            8.2,
                            4.5
                        ],
                        [
                            8.5,
                            4.2
                        ]
                    ]
                ]
            }
        }
    ]
}